HYPERFIELD-1A           
1 60562U 24149CY  26068.76488211  .00008569  00000+0  30052-3 0  9998
2 60562  97.3842 149.5066 0003865 313.7844  46.3076 15.29681349 86836
STARLINK-35594          
1 66157U 25240M   26068.36986020  .00041631  00000+0  14099-2 0  9993
2 66157  53.1614  64.0013 0001623  75.4773 284.6408 15.30198855 21949
